IRIDIUM 7               
1 24793U 97020B   26017.93322622  .00000342  00000+0  11077-3 0  9995
2 24793  86.3938  86.9171 0002478  99.9753 260.1724 14.36139458502710
IRIDIUM 5               
1 24795U 97020D   26017.89416739  .00004853  00000+0  37433-3 0  9990
2 24795  86.3894 344.5252 0106561  86.2653 275.0755 14.96844390517553
IRIDIUM 4               
1 24796U 97020E   26017.71221770  .00000301  00000+0  94998-4 0  9995
2 24796  86.3930  83.7417 0002251  98.3090 261.8362 14.37045771503272
IRIDIUM 914             
1 24836U 97030A   26017.94675342  .00000363  00000+0  10666-3 0  9991
2 24836  86.3919  91.6142 0001567 140.7122 219.4192 14.41107648638056
IRIDIUM 16              
1 24841U 97030F   26017.81311015  .00000365  00000+0  11216-3 0  9991
2 24841  86.4047 115.1596 0004255  88.9448 271.2238 14.38929898497865
IRIDIUM 911             
1 24842U 97030G   26017.72086667  .00000442  00000+0  11340-3 0  9998
2 24842  86.4469 113.7301 0016295 101.5873 258.7161 14.47948972506122
IRIDIUM 17              
1 24870U 97034B   26017.86079843  .00000368  00000+0  11518-3 0  9990
2 24870  86.3999 144.5581 0003119  67.4661 292.6867 14.38064338494433
IRIDIUM 920             
1 24871U 97034C   26017.69941992  .00000361  00000+0  10429-3 0  9998
2 24871  86.3998 123.3623 0013669  94.3723 265.9039 14.41771180497480
